STARLINK-2605_new
1 18392C 21038AR  21326.17641617  .00005515  00000-0  36952-3 0  3265
2 18392  53.0523 182.9423 0001708  77.9437 174.0141 15.06389156    11
STARLINK-2605_old
1 28392C 21038AR  21325.10624001  .00053666  00000-0  35950-2 0  3250
2 28392  53.0529 187.7469 0001647  77.2773 127.9153 15.06352249    11
